{
  "type": "FeatureCollection",
  "features": [
    {
      "type": "Feature",
      "properties": {
        "norad_id": 66550,
        "name": "CZ-7A R/B",
        "group": "last-30-days",
        "lat": 0.29666784630912557,
        "lon": -84.5749794055624,
        "alt_km": 34213.00139395695,
        "timestamp": "2025-12-03T15:48:01.920102+00:00",
        "meta_object_name": "CZ-7A R/B",
        "meta_object_id": "2025-277B",
        "meta_epoch": "2025-12-01T03:57:29.558880",
        "meta_mean_motion": 2.40161271,
        "meta_eccentricity": 0.72362879,
        "meta_inclination": 14.4278,
        "meta_ra_of_asc_node": 275.378,
        "meta_arg_of_pericenter": 178.5774,
        "meta_mean_anomaly": 186.2906,
        "meta_ephemeris_type": 0,
        "meta_classification_type": "U",
        "meta_norad_cat_id": 66550,
        "meta_element_set_no": 999,
        "meta_rev_at_epoch": 5,
        "meta_bstar": 4.4603974e-05,
        "meta_mean_motion_dot": 0.00016399,
        "meta_mean_motion_ddot": -7.1945e-08,
        "tle_line1": "1 66550U 25277B   25335.16492545  .00016399 -71945-7  44604-4 0  9993",
        "tle_line2": "2 66550  14.4278 275.3780 7236287 178.5774 186.2906  2.40161271    57"
      },
      "geometry": {
        "type": "Point",
        "coordinates": [
          -84.5749794055624,
          0.29666784630912557
        ]
      }
    },
    {
      "type": "Feature",
      "properties": {
        "norad_id": 66554,
        "name": "GLOBAL-33",
        "group": "last-30-days",
        "lat": -19.861042533919868,
        "lon": 85.75419102206315,
        "alt_km": 470.20514999533407,
        "timestamp": "2025-12-03T15:48:01.920111+00:00",
        "meta_object_name": "GLOBAL-33",
        "meta_object_id": "2025-267A",
        "meta_epoch": "2025-12-03T06:32:27.074976",
        "meta_mean_motion": 15.3127627,
        "meta_eccentricity": 0.00055287,
        "meta_inclination": 42.0184,
        "meta_ra_of_asc_node": 111.6349,
        "meta_arg_of_pericenter": 345.1412,
        "meta_mean_anomaly": 14.9262,
        "meta_ephemeris_type": 0,
        "meta_classification_type": "U",
        "meta_norad_cat_id": 66554,
        "meta_element_set_no": 999,
        "meta_rev_at_epoch": 195,
        "meta_bstar": 0.00053931482,
        "meta_mean_motion_dot": 0.00016435,
        "meta_mean_motion_ddot": 0,
        "tle_line1": "1 66554U 25267A   25337.27253559  .00016435  00000+0  53931-3 0  9998",
        "tle_line2": "2 66554  42.0184 111.6349 0005528 345.1412  14.9262 15.31276270  1955"
      },
      "geometry": {
        "type": "Point",
        "coordinates": [
          85.75419102206315,
          -19.861042533919868
        ]
      }
    },
    {
      "type": "Feature",
      "properties": {
        "norad_id": 66555,
        "name": "ELECTRON KICK STAGE R/B",
        "group": "last-30-days",
        "lat": 1.3060336787666689,
        "lon": 110.78221161035876,
        "alt_km": 464.0184853343735,
        "timestamp": "2025-12-03T15:48:01.920121+00:00",
        "meta_object_name": "ELECTRON KICK STAGE R/B",
        "meta_object_id": "2025-267B",
        "meta_epoch": "2025-12-03T01:42:41.033664",
        "meta_mean_motion": 15.32103317,
        "meta_eccentricity": 0.00074177,
        "meta_inclination": 42.0171,
        "meta_ra_of_asc_node": 112.7243,
        "meta_arg_of_pericenter": 343.2499,
        "meta_mean_anomaly": 16.8092,
        "meta_ephemeris_type": 0,
        "meta_classification_type": "U",
        "meta_norad_cat_id": 66555,
        "meta_element_set_no": 999,
        "meta_rev_at_epoch": 192,
        "meta_bstar": 0.00097714165,
        "meta_mean_motion_dot": 0.00030845,
        "meta_mean_motion_ddot": 0,
        "tle_line1": "1 66555U 25267B   25337.07130826  .00030845  00000+0  97714-3 0  9996",
        "tle_line2": "2 66555  42.0171 112.7243 0007417 343.2499  16.8092 15.32103317  1921"
      },
      "geometry": {
        "type": "Point",
        "coordinates": [
          110.78221161035876,
          1.3060336787666689
        ]
      }
    },
    {
      "type": "Feature",
      "properties": {
        "norad_id": 66557,
        "name": "STARLINK-35699",
        "group": "last-30-days",
        "lat": -27.842514774882414,
        "lon": 29.429860231085758,
        "alt_km": 348.0184552931769,
        "timestamp": "2025-12-03T15:48:01.920131+00:00",
        "meta_object_name": "STARLINK-35699",
        "meta_object_id": "2025-268A",
        "meta_epoch": "2025-12-03T06:00:02.999808",
        "meta_mean_motion": 15.75348622,
        "meta_eccentricity": 0.00016021,
        "meta_inclination": 42.9989,
        "meta_ra_of_asc_node": 177.3766,
        "meta_arg_of_pericenter": 286.3099,
        "meta_mean_anomaly": 138.9586,
        "meta_ephemeris_type": 0,
        "meta_classification_type": "U",
        "meta_norad_cat_id": 66557,
        "meta_element_set_no": 999,
        "meta_rev_at_epoch": 314,
        "meta_bstar": -0.0064948037,
        "meta_mean_motion_dot": -0.00909034,
        "meta_mean_motion_ddot": 0,
        "tle_line1": "1 66557U 25268A   25337.25003472 -.00909034  00000+0 -64948-2 0  9994",
        "tle_line2": "2 66557  42.9989 177.3766 0001602 286.3099 138.9586 15.75348622  3146"
      },
      "geometry": {
        "type": "Point",
        "coordinates": [
          29.429860231085758,
          -27.842514774882414
        ]
      }
    },
    {
      "type": "Feature",
      "properties": {
        "norad_id": 66558,
        "name": "STARLINK-35695",
        "group": "last-30-days",
        "lat": -28.906503357385958,
        "lon": 31.235555876770427,
        "alt_km": 348.0446456032605,
        "timestamp": "2025-12-03T15:48:01.920141+00:00",
        "meta_object_name": "STARLINK-35695",
        "meta_object_id": "2025-268B",
        "meta_epoch": "2025-12-03T06:00:02.999808",
        "meta_mean_motion": 15.75352274,
        "meta_eccentricity": 0.00016668,
        "meta_inclination": 42.9989,
        "meta_ra_of_asc_node": 177.3718,
        "meta_arg_of_pericenter": 286.3685,
        "meta_mean_anomaly": 140.8179,
        "meta_ephemeris_type": 0,
        "meta_classification_type": "U",
        "meta_norad_cat_id": 66558,
        "meta_element_set_no": 999,
        "meta_rev_at_epoch": 314,
        "meta_bstar": -0.006551289,
        "meta_mean_motion_dot": -0.00916297,
        "meta_mean_motion_ddot": 0,
        "tle_line1": "1 66558U 25268B   25337.25003472 -.00916297  00000+0 -65513-2 0  9993",
        "tle_line2": "2 66558  42.9989 177.3718 0001666 286.3685 140.8179 15.75352274  3143"
      },
      "geometry": {
        "type": "Point",
        "coordinates": [
          31.235555876770427,
          -28.906503357385958
        ]
      }
    },
    {
      "type": "Feature",
      "properties": {
        "norad_id": 66559,
        "name": "STARLINK-35419",
        "group": "last-30-days",
        "lat": -29.945946579303833,
        "lon": 33.0790268697624,
        "alt_km": 348.0129772107939,
        "timestamp": "2025-12-03T15:48:01.920151+00:00",
        "meta_object_name": "STARLINK-35419",
        "meta_object_id": "2025-268C",
        "meta_epoch": "2025-12-03T06:00:02.999808",
        "meta_mean_motion": 15.75357164,
        "meta_eccentricity": 0.0001792,
        "meta_inclination": 42.9989,
        "meta_ra_of_asc_node": 177.3674,
        "meta_arg_of_pericenter": 283.9855,
        "meta_mean_anomaly": 145.1241,
        "meta_ephemeris_type": 0,
        "meta_classification_type": "U",
        "meta_norad_cat_id": 66559,
        "meta_element_set_no": 999,
        "meta_rev_at_epoch": 314,
        "meta_bstar": -0.0066798345,
        "meta_mean_motion_dot": -0.00932654,
        "meta_mean_motion_ddot": 0,
        "tle_line1": "1 66559U 25268C   25337.25003472 -.00932654  00000+0 -66798-2 0  9995",
        "tle_line2": "2 66559  42.9989 177.3674 0001792 283.9855 145.1241 15.75357164  3148"
      },
      "geometry": {
        "type": "Point",
        "coordinates": [
          33.0790268697624,
          -29.945946579303833
        ]
      }
    },
    {
      "type": "Feature",
      "properties": {
        "norad_id": 66560,
        "name": "STARLINK-35411",
        "group": "last-30-days",
        "lat": -30.959707973620368,
        "lon": 34.96156066751698,
        "alt_km": 347.9738290061814,
        "timestamp": "2025-12-03T15:48:01.920162+00:00",
        "meta_object_name": "STARLINK-35411",
        "meta_object_id": "2025-268D",
        "meta_epoch": "2025-12-03T06:00:02.999808",
        "meta_mean_motion": 15.75354512,
        "meta_eccentricity": 0.0001723,
        "meta_inclination": 42.999,
        "meta_ra_of_asc_node": 177.3625,
        "meta_arg_of_pericenter": 279.9575,
        "meta_mean_anomaly": 151.0688,
        "meta_ephemeris_type": 0,
        "meta_classification_type": "U",
        "meta_norad_cat_id": 66560,
        "meta_element_set_no": 999,
        "meta_rev_at_epoch": 314,
        "meta_bstar": -0.0066322969,
        "meta_mean_motion_dot": -0.00926572,
        "meta_mean_motion_ddot": 0,
        "tle_line1": "1 66560U 25268D   25337.25003472 -.00926572  00000+0 -66323-2 0  9993",
        "tle_line2": "2 66560  42.9990 177.3625 0001723 279.9575 151.0688 15.75354512  3141"
      },
      "geometry": {
        "type": "Point",
        "coordinates": [
          34.96156066751698,
          -30.959707973620368
        ]
      }
    }
  ]
}